     2              NAVIGATION DATA                         RINEX VERSION / TYPE
CCRINEXN V1.6.0 UX  CDDIS               01-OCT-25 08:26     PGM / RUN BY / DATE 
IGS BROADCAST EPHEMERIS FILE                                COMMENT             
    0.3073D-07  0.1490D-07 -0.1192D-06 -0.5960D-07          ION ALPHA           
    0.1372D+06 -0.1638D+05 -0.1966D+06  0.1966D+06          ION BETA            
   -0.931322574616D-09 0.177635683940D-14   503808     2386 DELTA-UTC: A0,A1,T,W
    18                                                      LEAP SECONDS        
                                                            END OF HEADER       
12 25 10  1  7 59 44.0-0.600216444582D-03-0.909494701773D-12 0.000000000000D+00
    0.230000000000D+02 0.246875000000D+02 0.470983904084D-08 0.722445285980D+00
    0.113993883133D-05 0.879214354791D-02 0.696629285812D-05 0.515362030602D+04
    0.287984000000D+06-0.931322574615D-07-0.249042719814D+01-0.391155481338D-07
    0.959877476875D+00 0.243968750000D+03 0.151968048424D+01-0.818819821418D-08
   -0.410731394325D-10 0.100000000000D+01 0.238600000000D+04 0.000000000000D+00
    0.200000000000D+01 0.000000000000D+00-0.125728547573D-07 0.230000000000D+02
    0.280818000000D+06 0.400000000000D+01 0.000000000000D+00 0.000000000000D+00
17 25 10  1  7 59 44.0 0.862781889737D-04-0.144382283907D-10 0.000000000000D+00
    0.400000000000D+02 0.376250000000D+02 0.446804325479D-08-0.209043956160D+01
    0.228919088840D-05 0.131786126876D-01 0.769458711147D-05 0.515376743126D+04
    0.287984000000D+06 0.316649675369D-07-0.145429203694D+01 0.305473804474D-06
    0.961215025801D+00 0.231562500000D+03-0.118706237428D+01-0.782639742944D-08
   -0.212866009581D-09 0.100000000000D+01 0.238600000000D+04 0.000000000000D+00
    0.200000000000D+01 0.000000000000D+00-0.111758708954D-07 0.400000000000D+02
    0.280818000000D+06 0.400000000000D+01 0.000000000000D+00 0.000000000000D+00
24 25 10  1  7 59 44.0-0.285295303911D-03 0.118234311230D-10 0.000000000000D+00
    0.400000000000D+01-0.327187500000D+02 0.484305887570D-08 0.237654820987D+01
   -0.185333192349D-05 0.174717882182D-01 0.952370464802D-05 0.515366403770D+04
    0.287984000000D+06 0.111758708954D-06 0.257026642484D+01-0.247731804848D-06
    0.934782603550D+00 0.178906250000D+03 0.109967379687D+01-0.787604235449D-08
    0.294297972978D-09 0.100000000000D+01 0.238600000000D+04 0.000000000000D+00
    0.200000000000D+01 0.000000000000D+00 0.232830643654D-08 0.400000000000D+01
    0.280818000000D+06 0.400000000000D+01 0.000000000000D+00 0.000000000000D+00
31 25 10  1  7 59 44.0-0.189690850675D-03 0.170530256582D-11 0.000000000000D+00
    0.200000000000D+02-0.175312500000D+02 0.451375944477D-08 0.421695188886D+00
   -0.659376382828D-06 0.108385586645D-01 0.915676355362D-05 0.515372610474D+04
    0.287984000000D+06-0.143423676491D-06 0.269955419904D+01 0.169500708580D-06
    0.954769679384D+00 0.201406250000D+03 0.882801553211D+00-0.799533303771D-08
    0.224652214809D-09 0.100000000000D+01 0.238600000000D+04 0.000000000000D+00
    0.200000000000D+01 0.000000000000D+00-0.130385160446D-07 0.200000000000D+02
    0.286746000000D+06 0.400000000000D+01 0.000000000000D+00 0.000000000000D+00
 1 25 10  1  8  0  0.0 0.350100919604D-03 0.250111042988D-11 0.000000000000D+00
    0.210000000000D+02 0.661875000000D+02 0.457519057505D-08-0.312858446064D+01
    0.353343784809D-05 0.811553443782D-03 0.658631324768D-05 0.515365407181D+04
    0.288000000000D+06-0.484287738800D-07-0.388582285395D+00-0.372529029846D-08
    0.959121339871D+00 0.250468750000D+03-0.382878050350D-01-0.807140763510D-08
    0.875036448780D-10 0.100000000000D+01 0.238600000000D+04 0.000000000000D+00
    0.200000000000D+01 0.000000000000D+00-0.884756445885D-08 0.789000000000D+03
    0.280825000000D+06 0.400000000000D+01 0.000000000000D+00 0.000000000000D+00
 2 25 10  1  8  0  0.0-0.610067509115D-04 0.875388650456D-11 0.000000000000D+00
    0.950000000000D+02 0.706562500000D+02 0.441911264521D-08-0.169301356922D+01
    0.384449958801D-05 0.166127873818D-01 0.786222517490D-05 0.515365592194D+04
    0.288000000000D+06-0.435858964920D-06-0.551795175204D+00 0.115483999252D-06
    0.964797352300D+00 0.236218750000D+03-0.924216990787D+00-0.806605026908D-08
    0.657170230921D-10 0.100000000000D+01 0.238600000000D+04 0.000000000000D+00
    0.200000000000D+01 0.000000000000D+00-0.176951300000D-07 0.950000000000D+02
    0.280860000000D+06 0.400000000000D+01 0.000000000000D+00 0.000000000000D+00
 4 25 10  1  8  0  0.0 0.120373442769D-04 0.341060513165D-11 0.000000000000D+00
    0.600000000000D+02-0.855312500000D+02 0.420946105523D-08-0.221982080017D+01
   -0.450015068054D-05 0.351979513653D-02 0.726431608200D-05 0.515358315659D+04
    0.288000000000D+06-0.279396772385D-07 0.166602591836D+01-0.558793544769D-08
    0.968725201030D+00 0.244000000000D+03-0.295119556695D+01-0.784996983990D-08
   -0.196436753808D-10 0.100000000000D+01 0.238600000000D+04 0.000000000000D+00
    0.200000000000D+01 0.000000000000D+00-0.465661287308D-08 0.572000000000D+03
    0.283844000000D+06 0.400000000000D+01 0.000000000000D+00 0.000000000000D+00
 5 25 10  1  8  0  0.0-0.220677815378D-03-0.795807864051D-12 0.000000000000D+00
    0.440000000000D+02-0.146562500000D+02 0.423089051929D-08-0.172863252014D+01
   -0.678002834320D-06 0.564829073846D-02 0.360608100891D-05 0.515362436104D+04
    0.288000000000D+06 0.260770320892D-07 0.535351790202D+00 0.745058059692D-07
    0.978151636559D+00 0.318968750000D+03 0.143972936626D+01-0.806069290307D-08
   -0.464305054455D-11 0.100000000000D+01 0.238600000000D+04 0.000000000000D+00
    0.200000000000D+01 0.000000000000D+00-0.107102096081D-07 0.440000000000D+02
    0.286926000000D+06 0.400000000000D+01 0.000000000000D+00 0.000000000000D+00
 6 25 10  1  8  0  0.0-0.536832492799D-03-0.105728759081D-10 0.000000000000D+00
    0.770000000000D+02 0.580000000000D+02 0.394230707006D-08 0.238130060312D+01
    0.319816172123D-05 0.348766113166D-02 0.654160976410D-05 0.515365768242D+04
    0.288000000000D+06 0.113621354103D-06-0.442333441740D+00 0.782310962677D-07
    0.988165395661D+00 0.266500000000D+03-0.700172886337D+00-0.780246786125D-08
   -0.750031241812D-11 0.100000000000D+01 0.238600000000D+04 0.000000000000D+00
    0.200000000000D+01 0.000000000000D+00 0.372529029846D-08 0.770000000000D+02
    0.280818000000D+06 0.400000000000D+01 0.000000000000D+00 0.000000000000D+00
 8 25 10  1  8  0  0.0 0.529805663973D-03-0.125055521494D-11 0.000000000000D+00
    0.170000000000D+02 0.243750000000D+02 0.487913180685D-08-0.202907154819D+01
    0.940635800362D-06 0.107533772243D-01 0.800006091595D-05 0.515362140465D+04
    0.288000000000D+06 0.186264514923D-07-0.155670326744D+01-0.139698386192D-06
    0.945470255866D+00 0.216312500000D+03 0.463712587993D+00-0.805997858760D-08
   -0.144648882349D-09 0.100000000000D+01 0.238600000000D+04 0.000000000000D+00
    0.200000000000D+01 0.000000000000D+00 0.465661300000D-08 0.170000000000D+02
    0.280860000000D+06 0.400000000000D+01 0.000000000000D+00 0.000000000000D+00
 9 25 10  1  8  0  0.0 0.747479032725D-03 0.454747350886D-11 0.000000000000D+00
    0.880000000000D+02-0.771562500000D+02 0.442232706482D-08-0.147332364733D+01
   -0.408105552196D-05 0.352014810778D-02 0.689178705216D-05 0.515363846588D+04
    0.288000000000D+06-0.577419996262D-07 0.160284758332D+01 0.372529029846D-07
    0.962749360615D+00 0.247531250000D+03 0.202372720416D+01-0.805140680198D-08
   -0.703600736366D-10 0.100000000000D+01 0.238600000000D+04 0.000000000000D+00
    0.200000000000D+01 0.000000000000D+00 0.465661287308D-09 0.880000000000D+02
    0.284640000000D+06 0.400000000000D+01 0.000000000000D+00 0.000000000000D+00
10 25 10  1  8  0  0.0-0.538227148354D-03-0.693489710102D-11 0.000000000000D+00
    0.260000000000D+02-0.153750000000D+02 0.412052877942D-08-0.110354025717D-01
   -0.772997736931D-06 0.105882624630D-01 0.312924385071D-05 0.515364891624D+04
    0.288000000000D+06-0.391155481338D-07 0.590571170631D+00 0.109896063805D-06
    0.991011836329D+00 0.333031250000D+03-0.231580508630D+01-0.824998650219D-08
   -0.807176479283D-10 0.100000000000D+01 0.238600000000D+04 0.000000000000D+00
    0.200000000000D+01 0.000000000000D+00 0.232830600000D-08 0.260000000000D+02
    0.280860000000D+06 0.400000000000D+01 0.000000000000D+00 0.000000000000D+00
11 25 10  1  8  0  0.0-0.597555190325D-03 0.128466126625D-10 0.000000000000D+00
    0.108000000000D+03 0.568125000000D+02 0.443018453497D-08-0.284739126246D+01
    0.303424894810D-05 0.219859508797D-02 0.607408583164D-05 0.515373196411D+04
    0.288000000000D+06 0.391155481338D-07-0.420193779969D+00-0.689178705216D-07
    0.964983163376D+00 0.263625000000D+03-0.235701951601D+01-0.804069206996D-08
    0.103575742917D-10 0.100000000000D+01 0.238600000000D+04 0.000000000000D+00
    0.200000000000D+01 0.000000000000D+00-0.884756445885D-08 0.876000000000D+03
    0.280818000000D+06 0.400000000000D+01 0.000000000000D+00 0.000000000000D+00
14 25 10  1  8  0  0.0 0.700986012816D-03 0.375166564481D-11 0.000000000000D+00
    0.380000000000D+02 0.211562500000D+02 0.510235539072D-08 0.547853229795D+00
    0.112876296043D-05 0.619984336663D-02 0.672601163387D-05 0.515363463020D+04
    0.288000000000D+06 0.167638063431D-07-0.254263793247D+01 0.117346644402D-06
    0.943240771638D+00 0.241375000000D+03-0.276482381204D+01-0.831606068302D-08
    0.500020827875D-11 0.100000000000D+01 0.238600000000D+04 0.000000000000D+00
    0.200000000000D+01 0.000000000000D+00-0.791624188423D-08 0.380000000000D+02
    0.280818000000D+06 0.400000000000D+01 0.000000000000D+00 0.000000000000D+00
